[Satellite]
VERSION=1.1
NAME=DELTA 1 R/B
NICKNAME=DELTA 1 R/B
TLE1=1 20323U 89089B   19316.73549759 -.00000000  00000-0  90241-5 0  9995
TLE2=2 20323  97.0657 132.7515 0071364 195.3247 164.5789 14.48321546581880
STATUS=0
